{"type": "FeatureCollection", "features": [ {"type": "Feature", "properties": {"norad_id": 34878, "name": "COSMOS 2251 DEB", "group": "cosmos-2251-debris", "lat": -62.58954453875943, "lon": -5.470948685054365, "alt_km": 1012.7824467784367, "timestamp": "2025-12-24T18:55:56.467247+00:00", "meta": {"OBJECT_NAME": "COSMOS 2251 DEB", "OBJECT_ID": "1993-036ACR", "EPOCH": "2025-12-23T20:54:13.288896", "MEAN_MOTION": 13.44205311, "ECCENTRICITY": 0.0435702, "INCLINATION": 73.965, "RA_OF_ASC_NODE": 29.6641, "ARG_OF_PERICENTER": 10.9994, "MEAN_ANOMALY": 166.3695, "EPHEMERIS_TYPE": 0, "CLASSIFICATION_TYPE": "U", "NORAD_CAT_ID": 34878, "ELEMENT_SET_NO": 999, "REV_AT_EPOCH": 81422, "BSTAR": 0.00069148, "MEAN_MOTION_DOT": 6.89e-06, "MEAN_MOTION_DDOT": 0}, "tle": {"line1": "1 34878U 93036ACR 25357.87098714  .00000689  00000+0  69148-3 0  9990", "line2": "2 34878  73.9650  29.6641 0435702  10.9994 166.3695 13.44205311814220"}}, "geometry": {"type": "Point", "coordinates": [-5.470948685054365, -62.58954453875943]}}, {"type": "Feature", "properties": {"norad_id": 34882, "name": "COSMOS 2251 DEB", "group": "cosmos-2251-debris", "lat": 19.052158967540887, "lon": 16.884370518533757, "alt_km": 745.0945898680538, "timestamp": "2025-12-24T18:55:56.467257+00:00", "meta": {"OBJECT_NAME": "COSMOS 2251 DEB", "OBJECT_ID": "1993-036ACV", "EPOCH": "2025-12-24T00:07:46.732800", "MEAN_MOTION": 14.61615644, "ECCENTRICITY": 0.00833305, "INCLINATION": 74.0452, "RA_OF_ASC_NODE": 204.0518, "ARG_OF_PERICENTER": 328.3664, "MEAN_ANOMALY": 31.2508, "EPHEMERIS_TYPE": 0, "CLASSIFICATION_TYPE": "U", "NORAD_CAT_ID": 34882, "ELEMENT_SET_NO": 999, "REV_AT_EPOCH": 88689, "BSTAR": 0.00012522196, "MEAN_MOTION_DOT": 6.21e-06, "MEAN_MOTION_DDOT": 0}, "tle": {"line1": "1 34882U 93036ACV 25358.00540200  .00000621  00000+0  12522-3 0  9993", "line2": "2 34882  74.0452 204.0518 0083330 328.3664  31.2508 14.61615644886894"}}, "geometry": {"type": "Point", "coordinates": [16.884370518533757, 19.052158967540887]}}, {"type": "Feature", "properties": {"norad_id": 34883, "name": "COSMOS 2251 DEB", "group": "cosmos-2251-debris", "lat": 41.99497702203118, "lon": -154.514718464392, "alt_km": 711.0104732756236, "timestamp": "2025-12-24T18:55:56.467267+00:00", "meta": {"OBJECT_NAME": "COSMOS 2251 DEB", "OBJECT_ID": "1993-036ACW", "EPOCH": "2025-12-23T02:36:33.483168", "MEAN_MOTION": 14.51787467, "ECCENTRICITY": 0.00942228, "INCLINATION": 74.1995, "RA_OF_ASC_NODE": 43.3859, "ARG_OF_PERICENTER": 225.8341, "MEAN_ANOMALY": 133.505, "EPHEMERIS_TYPE": 0, "CLASSIFICATION_TYPE": "U", "NORAD_CAT_ID": 34883, "ELEMENT_SET_NO": 999, "REV_AT_EPOCH": 86590, "BSTAR": 0.003571855, "MEAN_MOTION_DOT": 0.00015225, "MEAN_MOTION_DDOT": 0}, "tle": {"line1": "1 34883U 93036ACW 25357.10872087  .00015225  00000+0  35719-2 0  9993", "line2": "2 34883  74.1995  43.3859 0094222 225.8341 133.5050 14.51787467865904"}}, "geometry": {"type": "Point", "coordinates": [-154.514718464392, 41.99497702203118]}}, {"type": "Feature", "properties": {"norad_id": 34884, "name": "COSMOS 2251 DEB", "group": "cosmos-2251-debris", "lat": -50.90010276059761, "lon": 11.940099136912977, "alt_km": 602.4988284038127, "timestamp": "2025-12-24T18:55:56.467277+00:00", "meta": {"OBJECT_NAME": "COSMOS 2251 DEB", "OBJECT_ID": "1993-036ACX", "EPOCH": "2025-12-24T05:00:38.350080", "MEAN_MOTION": 14.90560414, "ECCENTRICITY": 0.00029959, "INCLINATION": 74.017, "RA_OF_ASC_NODE": 33.7543, "ARG_OF_PERICENTER": 32.7107, "MEAN_ANOMALY": 42.1793, "EPHEMERIS_TYPE": 0, "CLASSIFICATION_TYPE": "U", "NORAD_CAT_ID": 34884, "ELEMENT_SET_NO": 999, "REV_AT_EPOCH": 87976, "BSTAR": 0.0026176795, "MEAN_MOTION_DOT": 0.00025665, "MEAN_MOTION_DDOT": 0}, "tle": {"line1": "1 34884U 93036ACX 25358.20877720  .00025665  00000+0  26177-2 0  9992", "line2": "2 34884  74.0170  33.7543 0002995  32.7107  42.1793 14.90560414879765"}}, "geometry": {"type": "Point", "coordinates": [11.940099136912977, -50.90010276059761]}}, {"type": "Feature", "properties": {"norad_id": 34885, "name": "COSMOS 2251 DEB", "group": "cosmos-2251-debris", "lat": -46.477067136268836, "lon": 142.78548187919944, "alt_km": 722.5302276019165, "timestamp": "2025-12-24T18:55:56.467288+00:00", "meta": {"OBJECT_NAME": "COSMOS 2251 DEB", "OBJECT_ID": "1993-036ACY", "EPOCH": "2025-12-23T18:25:17.940000", "MEAN_MOTION": 14.51558364, "ECCENTRICITY": 0.00150763, "INCLINATION": 74.0301, "RA_OF_ASC_NODE": 162.2571, "ARG_OF_PERICENTER": 247.7319, "MEAN_ANOMALY": 128.5918, "EPHEMERIS_TYPE": 0, "CLASSIFICATION_TYPE": "U", "NORAD_CAT_ID": 34885, "ELEMENT_SET_NO": 999, "REV_AT_EPOCH": 87639, "BSTAR": 0.00073001763, "MEAN_MOTION_DOT": 2.899e-05, "MEAN_MOTION_DDOT": 0}, "tle": {"line1": "1 34885U 93036ACY 25357.76756875  .00002899  00000+0  73002-3 0  9994", "line2": "2 34885  74.0301 162.2571 0015076 247.7319 128.5918 14.51558364876390"}}, "geometry": {"type": "Point", "coordinates": [142.78548187919944, -46.477067136268836]}}, {"type": "Feature", "properties": {"norad_id": 34886, "name": "COSMOS 2251 DEB", "group": "cosmos-2251-debris", "lat": -58.75393751483484, "lon": 3.167157652146777, "alt_km": 453.65653005479817, "timestamp": "2025-12-24T18:55:56.467298+00:00", "meta": {"OBJECT_NAME": "COSMOS 2251 DEB", "OBJECT_ID": "1993-036ACZ", "EPOCH": "2025-12-24T03:50:55.292352", "MEAN_MOTION": 15.40106218, "ECCENTRICITY": 0.0031856, "INCLINATION": 73.9515, "RA_OF_ASC_NODE": 156.2077, "ARG_OF_PERICENTER": 338.1702, "MEAN_ANOMALY": 21.8145, "EPHEMERIS_TYPE": 0, "CLASSIFICATION_TYPE": "U", "NORAD_CAT_ID": 34886, "ELEMENT_SET_NO": 999, "REV_AT_EPOCH": 63174, "BSTAR": 0.0019524781, "MEAN_MOTION_DOT": 0.00080389, "MEAN_MOTION_DDOT": 0}, "tle": {"line1": "1 34886U 93036ACZ 25358.16036218  .00080389  00000+0  19525-2 0  9991", "line2": "2 34886  73.9515 156.2077 0031856 338.1702  21.8145 15.40106218631746"}}, "geometry": {"type": "Point", "coordinates": [3.167157652146777, -58.75393751483484]}}, {"type": "Feature", "properties": {"norad_id": 34907, "name": "COSMOS 2251 DEB", "group": "cosmos-2251-debris", "lat": -16.03816710167116, "lon": -153.32491276048884, "alt_km": 418.8654821184673, "timestamp": "2025-12-24T18:55:56.467308+00:00", "meta": {"OBJECT_NAME": "COSMOS 2251 DEB", "OBJECT_ID": "1993-036ADC", "EPOCH": "2025-12-24T02:37:30.225504", "MEAN_MOTION": 15.52535461, "ECCENTRICITY": 0.00168337, "INCLINATION": 73.9648, "RA_OF_ASC_NODE": 23.4353, "ARG_OF_PERICENTER": 325.481, "MEAN_ANOMALY": 34.5309, "EPHEMERIS_TYPE": 0, "CLASSIFICATION_TYPE": "U", "NORAD_CAT_ID": 34907, "ELEMENT_SET_NO": 999, "REV_AT_EPOCH": 88149, "BSTAR": 0.0074290364, "MEAN_MOTION_DOT": 0.00487105, "MEAN_MOTION_DDOT": 0}, "tle": {"line1": "1 34907U 93036ADC 25358.10937761  .00487105  00000+0  74290-2 0  9999", "line2": "2 34907  73.9648  23.4353 0016833 325.4810  34.5309 15.52535461881497"}}, "geometry": {"type": "Point", "coordinates": [-153.32491276048884, -16.03816710167116]}}, {"type": "Feature", "properties": {"norad_id": 34908, "name": "COSMOS 2251 DEB", "group": "cosmos-2251-debris", "lat": 55.512808614524694, "lon": 156.9275580044561, "alt_km": 769.6322176020931, "timestamp": "2025-12-24T18:55:56.467318+00:00", "meta": {"OBJECT_NAME": "COSMOS 2251 DEB", "OBJECT_ID": "1993-036ADD", "EPOCH": "2025-12-22T07:59:02.454720", "MEAN_MOTION": 14.3742634, "ECCENTRICITY": 0.00405228, "INCLINATION": 74.0578, "RA_OF_ASC_NODE": 6.0278, "ARG_OF_PERICENTER": 19.2122, "MEAN_ANOMALY": 356.2877, "EPHEMERIS_TYPE": 0, "CLASSIFICATION_TYPE": "U", "NORAD_CAT_ID": 34908, "ELEMENT_SET_NO": 999, "REV_AT_EPOCH": 87417, "BSTAR": 0.00050310259, "MEAN_MOTION_DOT": 1.493e-05, "MEAN_MOTION_DDOT": 0}, "tle": {"line1": "1 34908U 93036ADD 25356.33266730  .00001493  00000+0  50310-3 0  9994", "line2": "2 34908  74.0578   6.0278 0040522  19.2122 356.2877 14.37426340874179"}}, "geometry": {"type": "Point", "coordinates": [156.9275580044561, 55.512808614524694]}}, {"type": "Feature", "properties": {"norad_id": 34909, "name": "COSMOS 2251 DEB", "group": "cosmos-2251-debris", "lat": -27.16801134360667, "lon": -118.65680123575439, "alt_km": 586.9247492687155, "timestamp": "2025-12-24T18:55:56.467328+00:00", "meta": {"OBJECT_NAME": "COSMOS 2251 DEB", "OBJECT_ID": "1993-036ADE", "EPOCH": "2025-12-24T03:22:22.850400", "MEAN_MOTION": 14.77922194, "ECCENTRICITY": 0.00837258, "INCLINATION": 74.0138, "RA_OF_ASC_NODE": 54.1567, "ARG_OF_PERICENTER": 187.2937, "MEAN_ANOMALY": 172.7029, "EPHEMERIS_TYPE": 0, "CLASSIFICATION_TYPE": "U", "NORAD_CAT_ID": 34909, "ELEMENT_SET_NO": 999, "REV_AT_EPOCH": 67020, "BSTAR": 0.00050970849, "MEAN_MOTION_DOT": 3.858e-05, "MEAN_MOTION_DDOT": 0}, "tle": {"line1": "1 34909U 93036ADE 25358.14054225  .00003858  00000+0  50971-3 0  9990", "line2": "2 34909  74.0138  54.1567 0083725 187.2937 172.7029 14.77922194670209"}}, "geometry": {"type": "Point", "coordinates": [-118.65680123575439, -27.16801134360667]}}, {"type": "Feature", "properties": {"norad_id": 34910, "name": "COSMOS 2251 DEB", "group": "cosmos-2251-debris", "lat": -29.64777682356936, "lon": -88.11324299988223, "alt_km": 779.0501751916927, "timestamp": "2025-12-24T18:55:56.467339+00:00", "meta": {"OBJECT_NAME": "COSMOS 2251 DEB", "OBJECT_ID": "1993-036ADF", "EPOCH": "2025-12-23T22:45:30.280032", "MEAN_MOTION": 13.37707493, "ECCENTRICITY": 0.0467761, "INCLINATION": 73.8761, "RA_OF_ASC_NODE": 83.7364, "ARG_OF_PERICENTER": 200.8485, "MEAN_ANOMALY": 282.4529, "EPHEMERIS_TYPE": 0, "CLASSIFICATION_TYPE": "U", "NORAD_CAT_ID": 34910, "ELEMENT_SET_NO": 999, "REV_AT_EPOCH": 81674, "BSTAR": 0.0010465, "MEAN_MOTION_DOT": 1.013e-05, "MEAN_MOTION_DDOT": 0}, "tle": {"line1": "1 34910U 93036ADF 25357.94826713  .00001013  00000+0  10465-2 0  9992", "line2": "2 34910  73.8761  83.7364 0467761 200.8485 282.4529 13.37707493816742"}}, "geometry": {"type": "Point", "coordinates": [-88.11324299988223, -29.64777682356936]}}]}